{"type":"FeatureCollection","features":[{"type":"Feature","properties":{"id":20},"geometry":{"type":"MultiPolygon","coordinates":[[[[23.549063,41.091093],[23.54917,41.091105],[23.54917,41.091091],[23.549257,41.091093],[23.549254,41.091111],[23.549311,41.091118],[23.549325,41.091044],[23.549296,41.091043],[23.549296,41.091061],[23.549128,41.091051],[23.549136,41.090968],[23.549173,41.090967],[23.549174,41.090942],[23.549073,41.090938],[23.549063,41.091093]]]]}},{"type":"Feature","properties":{"id":21},"geometry":{"type":"MultiPolygon","coordinates":[[[[23.549097,41.090921],[23.54918,41.090925],[23.549181,41.090874],[23.549158,41.090874],[23.549162,41.09082],[23.549337,41.090833],[23.549334,41.090865],[23.549368,41.090867],[23.549376,41.09079],[23.549099,41.090766],[23.549097,41.090921]]]]}},{"type":"Feature","properties":{"id":23},"geometry":{"type":"MultiPolygon","coordinates":[[[[23.549409,41.090871],[23.549435,41.090872],[23.549438,41.090853],[23.549596,41.090872],[23.549582,41.090974],[23.549648,41.090978],[23.549667,41.090853],[23.549676,41.090854],[23.549681,41.090829],[23.549418,41.090799],[23.549409,41.090871]]]]}},{"type":"Feature","properties":{"id":24},"geometry":{"type":"MultiPolygon","coordinates":[[[[23.549333,41.091121],[23.549504,41.091145],[23.549504,41.091132],[23.549624,41.091141],[23.549642,41.09099],[23.549547,41.090982],[23.549544,41.091004],[23.549571,41.091006],[23.549568,41.091035],[23.549533,41.091033],[23.549532,41.091062],[23.549346,41.091044],[23.549333,41.091121]]]]}},{"type":"Feature","properties":{"id":26},"geometry":{"type":"MultiPolygon","coordinates":[[[[23.549377,41.091211],[23.549366,41.091202],[23.549357,41.091185],[23.549357,41.091172],[23.549361,41.091162],[23.549368,41.091156],[23.549383,41.091155],[23.549624,41.091179],[23.549648,41.09142],[23.549659,41.091552],[23.549653,41.091734],[23.549643,41.091739],[23.549633,41.091739],[23.549626,41.091738],[23.549618,41.091732],[23.549535,41.091633],[23.549521,41.09163],[23.549508,41.091605],[23.549517,41.0916],[23.549494,41.091554],[23.549481,41.091556],[23.549456,41.0915],[23.549443,41.091428],[23.549461,41.091425],[23.549459,41.091388],[23.549448,41.091388],[23.549377,41.091211]]]]}},{"type":"Feature","properties":{"id":27},"geometry":{"type":"MultiPolygon","coordinates":[[[[23.549712,41.091377],[23.549818,41.091366],[23.549802,41.09126],[23.549797,41.091261],[23.549787,41.091183],[23.549775,41.091093],[23.549797,41.091154],[23.549809,41.0912],[23.549832,41.0912],[23.549835,41.091215],[23.549876,41.091262],[23.549898,41.09126],[23.549927,41.091329],[23.549966,41.091316],[23.55006,41.091402],[23.550073,41.091392],[23.549931,41.091191],[23.549855,41.091078],[23.54982,41.091019],[23.549837,41.091019],[23.549811,41.09097],[23.549696,41.090985],[23.549695,41.091015],[23.549703,41.091016],[23.549699,41.091065],[23.549688,41.091087],[23.549712,41.091377]]]]}},{"type":"Feature","properties":{"id":28},"geometry":{"type":"MultiPolygon","coordinates":[[[[23.549803,41.090854],[23.549839,41.090815],[23.549877,41.090785],[23.54986,41.090733],[23.549802,41.090748],[23.549732,41.090588],[23.549778,41.09058],[23.549759,41.090526],[23.549708,41.090536],[23.549713,41.090552],[23.549683,41.090558],[23.549645,41.090475],[23.549608,41.090481],[23.549757,41.090805],[23.549803,41.090854]]]]}},{"type":"Feature","properties":{"id":29},"geometry":{"type":"MultiPolygon","coordinates":[[[[23.549846,41.090904],[23.549965,41.090889],[23.550177,41.090865],[23.550277,41.090859],[23.550277,41.090853],[23.550452,41.090838],[23.550447,41.090759],[23.550413,41.090761],[23.550413,41.090755],[23.550369,41.090757],[23.550369,41.090744],[23.550294,41.090748],[23.55021,41.09076],[23.550208,41.090774],[23.550181,41.090776],[23.550178,41.090798],[23.549862,41.090831],[23.549846,41.090904]]]]}},{"type":"Feature","properties":{"id":30},"geometry":{"type":"MultiPolygon","coordinates":[[[[23.550512,41.09083],[23.550662,41.090816],[23.550658,41.090771],[23.5505,41.090761],[23.550512,41.09083]]]]}},{"type":"Feature","properties":{"id":42},"geometry":{"type":"MultiPolygon","coordinates":[[[[23.549984,41.090967],[23.550019,41.091048],[23.550186,41.091036],[23.550277,41.091023],[23.550367,41.091006],[23.550502,41.090985],[23.550502,41.090989],[23.550401,41.091012],[23.550299,41.091027],[23.550299,41.091066],[23.550277,41.091067],[23.550279,41.09111],[23.550263,41.09117],[23.550246,41.091168],[23.550246,41.091221],[23.550227,41.09125],[23.550155,41.091239],[23.550129,41.091265],[23.550081,41.09118],[23.550006,41.091206],[23.550099,41.091346],[23.550166,41.091319],[23.550139,41.091278],[23.550187,41.091299],[23.550219,41.091261],[23.550204,41.09131],[23.550243,41.091385],[23.550151,41.091434],[23.550228,41.091516],[23.55032,41.091473],[23.550326,41.091479],[23.55042,41.091418],[23.550432,41.091373],[23.550451,41.091333],[23.550514,41.091254],[23.550562,41.091154],[23.550648,41.091059],[23.550653,41.090963],[23.550676,41.090961],[23.550675,41.090934],[23.550666,41.090935],[23.550665,41.090893],[23.549984,41.090967]]]]}},{"type":"Feature","properties":{"id":44},"geometry":{"type":"MultiPolygon","coordinates":[[[[23.550742,41.091033],[23.550827,41.091046],[23.550831,41.091035],[23.550975,41.091048],[23.550995,41.090986],[23.550877,41.090976],[23.550892,41.090919],[23.550815,41.090932],[23.550786,41.090871],[23.550741,41.09088],[23.550753,41.090945],[23.550742,41.091033]]]]}},{"type":"Feature","properties":{"id":46},"geometry":{"type":"MultiPolygon","coordinates":[[[[23.549714,41.091868],[23.549794,41.091864],[23.549793,41.091826],[23.549841,41.091827],[23.549787,41.09172],[23.54976,41.09165],[23.549728,41.09165],[23.549723,41.091731],[23.549733,41.091733],[23.549732,41.091767],[23.549717,41.091768],[23.549714,41.091868]]]]}},{"type":"Feature","properties":{"id":47},"geometry":{"type":"MultiPolygon","coordinates":[[[[23.549717,41.091932],[23.549807,41.091996],[23.549849,41.091969],[23.549814,41.091901],[23.549717,41.091932]]]]}},{"type":"Feature","properties":{"id":48},"geometry":{"type":"MultiPolygon","coordinates":[[[[23.550091,41.091933],[23.55015,41.091912],[23.550124,41.091873],[23.550069,41.091895],[23.550091,41.091933]]]]}},{"type":"Feature","properties":{"id":49},"geometry":{"type":"MultiPolygon","coordinates":[[[[23.549935,41.091568],[23.550006,41.091541],[23.55003,41.091587],[23.550059,41.091618],[23.550176,41.091551],[23.550092,41.091459],[23.549991,41.091516],[23.549928,41.09153],[23.549935,41.091568]]]]}},{"type":"Feature","properties":{"id":50},"geometry":{"type":"MultiPolygon","coordinates":[[[[23.55017,41.091704],[23.550223,41.091682],[23.550233,41.091692],[23.550283,41.091667],[23.550204,41.091581],[23.550149,41.091609],[23.550117,41.091626],[23.55017,41.091704]]]]}},{"type":"Feature","properties":{"id":51},"geometry":{"type":"MultiPolygon","coordinates":[[[[23.55029,41.091765],[23.550319,41.091805],[23.550377,41.091882],[23.550448,41.091843],[23.550343,41.091733],[23.55029,41.091765]]]]}},{"type":"Feature","properties":{"id":53},"geometry":{"type":"MultiPolygon","coordinates":[[[[23.550267,41.091557],[23.550332,41.091631],[23.550443,41.091752],[23.550462,41.091777],[23.550477,41.091797],[23.550537,41.09185],[23.550582,41.091884],[23.550625,41.091898],[23.550753,41.091949],[23.550761,41.091939],[23.550816,41.091959],[23.550939,41.091768],[23.550864,41.091738],[23.550769,41.091873],[23.550748,41.091865],[23.55076,41.091845],[23.550537,41.091752],[23.550481,41.091687],[23.550467,41.09169],[23.5504,41.091602],[23.550411,41.091596],[23.550366,41.091546],[23.550348,41.091551],[23.550339,41.091523],[23.550267,41.091557]]]]}},{"type":"Feature","properties":{"id":1},"geometry":{"type":"MultiPolygon","coordinates":[[[[23.547191,41.090732],[23.547566,41.090862],[23.547625,41.090884],[23.547655,41.090854],[23.547683,41.090877],[23.547755,41.090819],[23.547739,41.090804],[23.547767,41.090782],[23.547775,41.090786],[23.547816,41.090739],[23.547604,41.090552],[23.547532,41.090595],[23.547677,41.090727],[23.547656,41.090745],[23.547672,41.090759],[23.547615,41.090803],[23.547464,41.090738],[23.547449,41.090752],[23.547374,41.090722],[23.547368,41.090731],[23.547246,41.090683],[23.547184,41.09068],[23.547191,41.090732]]]]}},{"type":"Feature","properties":{"id":2},"geometry":{"type":"MultiPolygon","coordinates":[[[[23.548053,41.090815],[23.548083,41.090818],[23.548102,41.090772],[23.548062,41.090766],[23.548053,41.090815]]]]}},{"type":"Feature","properties":{"id":3},"geometry":{"type":"MultiPolygon","coordinates":[[[[23.548159,41.090886],[23.548266,41.090912],[23.548323,41.090917],[23.54853,41.090915],[23.548768,41.090959],[23.548792,41.090869],[23.548492,41.090832],[23.54825,41.090793],[23.548175,41.090782],[23.548159,41.090886]]]]}},{"type":"Feature","properties":{"id":4},"geometry":{"type":"MultiPolygon","coordinates":[[[[23.547507,41.090537],[23.547583,41.090488],[23.547481,41.090386],[23.547325,41.090273],[23.547315,41.090282],[23.547156,41.090194],[23.547115,41.09026],[23.54718,41.090312],[23.547188,41.090306],[23.547236,41.090333],[23.547218,41.090349],[23.547266,41.090387],[23.547308,41.090351],[23.547389,41.0904],[23.547363,41.090426],[23.547507,41.090537]]]]}},{"type":"Feature","properties":{"id":5},"geometry":{"type":"MultiPolygon","coordinates":[[[[23.54711,41.090078],[23.547249,41.090144],[23.547352,41.090199],[23.547475,41.090254],[23.547521,41.090147],[23.547444,41.090115],[23.547289,41.090053],[23.547285,41.090062],[23.547146,41.089999],[23.54711,41.090078]]]]}},{"type":"Feature","properties":{"id":6},"geometry":{"type":"MultiPolygon","coordinates":[[[[23.547539,41.090293],[23.547763,41.090366],[23.547962,41.090419],[23.548157,41.090478],[23.548194,41.090367],[23.547927,41.090285],[23.547577,41.090195],[23.547539,41.090293]]]]}},{"type":"Feature","properties":{"id":7},"geometry":{"type":"MultiPolygon","coordinates":[[[[23.547656,41.09043],[23.547659,41.090479],[23.547683,41.090529],[23.54774,41.090604],[23.547787,41.090641],[23.547844,41.090661],[23.547919,41.090687],[23.547977,41.090694],[23.548053,41.090538],[23.547656,41.09043]]]]}},{"type":"Feature","properties":{"id":8},"geometry":{"type":"MultiPolygon","coordinates":[[[[23.548042,41.090708],[23.548357,41.090752],[23.548624,41.090794],[23.548789,41.090818],[23.548909,41.090831],[23.548909,41.090843],[23.549012,41.090836],[23.549032,41.090771],[23.549047,41.090744],[23.54886,41.090705],[23.548554,41.09064],[23.548112,41.09055],[23.548081,41.090605],[23.548042,41.090708]]]]}},{"type":"Feature","properties":{"id":9},"geometry":{"type":"MultiPolygon","coordinates":[[[[23.548194,41.090489],[23.548433,41.090542],[23.548701,41.090607],[23.548917,41.090653],[23.548994,41.09067],[23.549001,41.090633],[23.5488,41.09059],[23.548584,41.090537],[23.548396,41.090493],[23.548204,41.090452],[23.548194,41.090489]]]]}},{"type":"Feature","properties":{"id":10},"geometry":{"type":"MultiPolygon","coordinates":[[[[23.548218,41.09044],[23.548265,41.090451],[23.548277,41.090426],[23.549011,41.090595],[23.549023,41.090542],[23.548356,41.090386],[23.548348,41.090401],[23.548252,41.090376],[23.548218,41.09044]]]]}},{"type":"Feature","properties":{"id":11},"geometry":{"type":"MultiPolygon","coordinates":[[[[23.549349,41.090735],[23.54961,41.090768],[23.54967,41.090767],[23.549601,41.090612],[23.549514,41.090635],[23.549512,41.090666],[23.54943,41.090666],[23.54943,41.090658],[23.549383,41.09066],[23.549381,41.090701],[23.54935,41.090701],[23.549349,41.090735]]]]}},{"type":"Feature","properties":{"id":12},"geometry":{"type":"MultiPolygon","coordinates":[[[[23.548825,41.09099],[23.548899,41.09097],[23.549037,41.090937],[23.549046,41.090864],[23.548983,41.090868],[23.548932,41.090872],[23.548862,41.09089],[23.548834,41.090914],[23.548826,41.090936],[23.548825,41.09099]]]]}},{"type":"Feature","properties":{"id":14},"geometry":{"type":"MultiPolygon","coordinates":[[[[23.548867,41.091032],[23.548937,41.091094],[23.548948,41.091089],[23.548986,41.09112],[23.548987,41.091137],[23.549089,41.09122],[23.54911,41.09122],[23.549213,41.091262],[23.549402,41.091429],[23.54942,41.091423],[23.549395,41.091328],[23.549348,41.091244],[23.549318,41.091145],[23.549027,41.091111],[23.549028,41.091038],[23.54904,41.091038],[23.549038,41.090964],[23.548935,41.090994],[23.548896,41.09101],[23.548867,41.091032]]]]}},{"type":"Feature","properties":{"id":15},"geometry":{"type":"MultiPolygon","coordinates":[[[[23.548685,41.091224],[23.548765,41.091274],[23.548822,41.091254],[23.548953,41.091161],[23.548844,41.09109],[23.548731,41.091181],[23.548685,41.091224]]]]}},{"type":"Feature","properties":{"id":16},"geometry":{"type":"MultiPolygon","coordinates":[[[[23.548914,41.091232],[23.549009,41.091287],[23.549055,41.091245],[23.548964,41.091187],[23.548914,41.091232]]]]}},{"type":"Feature","properties":{"id":18},"geometry":{"type":"MultiPolygon","coordinates":[[[[23.549052,41.091303],[23.549097,41.091328],[23.549083,41.091348],[23.549142,41.091392],[23.549142,41.091407],[23.54916,41.091418],[23.549161,41.091428],[23.549224,41.091489],[23.549259,41.091533],[23.549288,41.091586],[23.549359,41.091658],[23.549408,41.091711],[23.549501,41.091674],[23.549429,41.091579],[23.549401,41.091524],[23.549374,41.091483],[23.549271,41.091398],[23.549266,41.091373],[23.549188,41.091315],[23.549092,41.091261],[23.549052,41.091303]]]]}}],"_umap_options":{"displayOnLoad":true,"browsable":true,"remoteData":{},"name":"agora","id":2381024,"color":"Indigo","fillOpacity":"0.6"}}